{"type": "FeatureCollection", "features": [ {"type": "Feature", "properties": {"norad_id": 31274, "name": "FENGYUN 1C DEB", "group": "fengyun-1c-debris", "lat": 8.773893591379482, "lon": 160.01239147783946, "alt_km": 1014.2532620459424, "timestamp": "2025-12-07T20:38:14.345128+00:00", "meta": {"OBJECT_NAME": "FENGYUN 1C DEB", "OBJECT_ID": "1999-025BNG", "EPOCH": "2025-12-05T06:12:12.289248", "MEAN_MOTION": 13.85598033, "ECCENTRICITY": 0.02385459, "INCLINATION": 99.0041, "RA_OF_ASC_NODE": 158.9131, "ARG_OF_PERICENTER": 130.3704, "MEAN_ANOMALY": 231.8547, "EPHEMERIS_TYPE": 0, "CLASSIFICATION_TYPE": "U", "NORAD_CAT_ID": 31274, "ELEMENT_SET_NO": 999, "REV_AT_EPOCH": 94103, "BSTAR": 0.0016520723, "MEAN_MOTION_DOT": 2.318e-05, "MEAN_MOTION_DDOT": 0}, "tle": {"line1": "1 31274U 99025BNG 25339.25847557  .00002318  00000+0  16521-2 0  9997", "line2": "2 31274  99.0041 158.9131 0238545 130.3704 231.8547 13.85598033941037"}}, "geometry": {"type": "Point", "coordinates": [160.01239147783946, 8.773893591379482]}}, {"type": "Feature", "properties": {"norad_id": 31275, "name": "FENGYUN 1C DEB", "group": "fengyun-1c-debris", "lat": -81.0207444470109, "lon": 110.74111993869386, "alt_km": 900.4624665533565, "timestamp": "2025-12-07T20:38:14.345138+00:00", "meta": {"OBJECT_NAME": "FENGYUN 1C DEB", "OBJECT_ID": "1999-025BNH", "EPOCH": "2025-12-07T02:13:16.543776", "MEAN_MOTION": 14.02299654, "ECCENTRICITY": 0.01040871, "INCLINATION": 98.946, "RA_OF_ASC_NODE": 24.5298, "ARG_OF_PERICENTER": 8.9802, "MEAN_ANOMALY": 351.3194, "EPHEMERIS_TYPE": 0, "CLASSIFICATION_TYPE": "U", "NORAD_CAT_ID": 31275, "ELEMENT_SET_NO": 999, "REV_AT_EPOCH": 95407, "BSTAR": 0.0013642425, "MEAN_MOTION_DOT": 2.15e-05, "MEAN_MOTION_DDOT": 0}, "tle": {"line1": "1 31275U 99025BNH 25341.09255259  .00002150  00000+0  13642-2 0  9990", "line2": "2 31275  98.9460  24.5298 0104087   8.9802 351.3194 14.02299654954076"}}, "geometry": {"type": "Point", "coordinates": [110.74111993869386, -81.0207444470109]}}, {"type": "Feature", "properties": {"norad_id": 31279, "name": "FENGYUN 1C DEB", "group": "fengyun-1c-debris", "lat": 9.104741566226313, "lon": -11.095240058267676, "alt_km": 858.5043555319653, "timestamp": "2025-12-07T20:38:14.345148+00:00", "meta": {"OBJECT_NAME": "FENGYUN 1C DEB", "OBJECT_ID": "1999-025BNM", "EPOCH": "2025-12-07T07:07:27.677568", "MEAN_MOTION": 14.26288569, "ECCENTRICITY": 0.0073413, "INCLINATION": 98.5171, "RA_OF_ASC_NODE": 349.7333, "ARG_OF_PERICENTER": 193.6143, "MEAN_ANOMALY": 166.3059, "EPHEMERIS_TYPE": 0, "CLASSIFICATION_TYPE": "U", "NORAD_CAT_ID": 31279, "ELEMENT_SET_NO": 999, "REV_AT_EPOCH": 97151, "BSTAR": 0.00084833941, "MEAN_MOTION_DOT": 2.052e-05, "MEAN_MOTION_DDOT": 0}, "tle": {"line1": "1 31279U 99025BNM 25341.29684812  .00002052  00000+0  84834-3 0  9990", "line2": "2 31279  98.5171 349.7333 0073413 193.6143 166.3059 14.26288569971516"}}, "geometry": {"type": "Point", "coordinates": [-11.095240058267676, 9.104741566226313]}}, {"type": "Feature", "properties": {"norad_id": 31281, "name": "FENGYUN 1C DEB", "group": "fengyun-1c-debris", "lat": 23.333657316371244, "lon": -59.88565717499013, "alt_km": 461.2821567942192, "timestamp": "2025-12-07T20:38:14.345158+00:00", "meta": {"OBJECT_NAME": "FENGYUN 1C DEB", "OBJECT_ID": "1999-025BNP", "EPOCH": "2025-12-07T02:32:44.120544", "MEAN_MOTION": 15.16870418, "ECCENTRICITY": 0.0114792, "INCLINATION": 98.3854, "RA_OF_ASC_NODE": 115.6327, "ARG_OF_PERICENTER": 110.8358, "MEAN_ANOMALY": 250.5211, "EPHEMERIS_TYPE": 0, "CLASSIFICATION_TYPE": "U", "NORAD_CAT_ID": 31281, "ELEMENT_SET_NO": 999, "REV_AT_EPOCH": 99646, "BSTAR": 0.0020519135, "MEAN_MOTION_DOT": 0.00048077, "MEAN_MOTION_DDOT": 0}, "tle": {"line1": "1 31281U 99025BNP 25341.10606621  .00048077  00000+0  20519-2 0  9991", "line2": "2 31281  98.3854 115.6327 0114792 110.8358 250.5211 15.16870418996460"}}, "geometry": {"type": "Point", "coordinates": [-59.88565717499013, 23.333657316371244]}}, {"type": "Feature", "properties": {"norad_id": 31282, "name": "FENGYUN 1C DEB", "group": "fengyun-1c-debris", "lat": 23.870650173346487, "lon": -105.38725975451267, "alt_km": 734.7967839806715, "timestamp": "2025-12-07T20:38:14.345167+00:00", "meta": {"OBJECT_NAME": "FENGYUN 1C DEB", "OBJECT_ID": "1999-025BNQ", "EPOCH": "2025-12-07T00:33:47.248992", "MEAN_MOTION": 14.4344992, "ECCENTRICITY": 0.01272304, "INCLINATION": 99.2162, "RA_OF_ASC_NODE": 257.8282, "ARG_OF_PERICENTER": 303.4703, "MEAN_ANOMALY": 55.4375, "EPHEMERIS_TYPE": 0, "CLASSIFICATION_TYPE": "U", "NORAD_CAT_ID": 31282, "ELEMENT_SET_NO": 999, "REV_AT_EPOCH": 97038, "BSTAR": 0.00048982227, "MEAN_MOTION_DOT": 1.768e-05, "MEAN_MOTION_DDOT": 0}, "tle": {"line1": "1 31282U 99025BNQ 25341.02346353  .00001768  00000+0  48982-3 0  9997", "line2": "2 31282  99.2162 257.8282 0127230 303.4703  55.4375 14.43449920970382"}}, "geometry": {"type": "Point", "coordinates": [-105.38725975451267, 23.870650173346487]}}, {"type": "Feature", "properties": {"norad_id": 31284, "name": "FENGYUN 1C DEB", "group": "fengyun-1c-debris", "lat": 23.16403800739454, "lon": 71.76245445249404, "alt_km": 830.1685726245278, "timestamp": "2025-12-07T20:38:14.345177+00:00", "meta": {"OBJECT_NAME": "FENGYUN 1C DEB", "OBJECT_ID": "1999-025BNS", "EPOCH": "2025-12-05T11:50:22.488576", "MEAN_MOTION": 13.97878471, "ECCENTRICITY": 0.01435232, "INCLINATION": 99.723, "RA_OF_ASC_NODE": 73.4643, "ARG_OF_PERICENTER": 78.247, "MEAN_ANOMALY": 283.4752, "EPHEMERIS_TYPE": 0, "CLASSIFICATION_TYPE": "U", "NORAD_CAT_ID": 31284, "ELEMENT_SET_NO": 999, "REV_AT_EPOCH": 95061, "BSTAR": 0.001224281, "MEAN_MOTION_DOT": 1.845e-05, "MEAN_MOTION_DDOT": 0}, "tle": {"line1": "1 31284U 99025BNS 25339.49331584  .00001845  00000+0  12243-2 0  9993", "line2": "2 31284  99.7230  73.4643 0143523  78.2470 283.4752 13.97878471950610"}}, "geometry": {"type": "Point", "coordinates": [71.76245445249404, 23.16403800739454]}}, {"type": "Feature", "properties": {"norad_id": 31285, "name": "FENGYUN 1C DEB", "group": "fengyun-1c-debris", "lat": -57.89914328852938, "lon": 128.58257419368172, "alt_km": 697.7076831264294, "timestamp": "2025-12-07T20:38:14.345187+00:00", "meta": {"OBJECT_NAME": "FENGYUN 1C DEB", "OBJECT_ID": "1999-025BNT", "EPOCH": "2025-12-07T04:40:28.180704", "MEAN_MOTION": 14.26030694, "ECCENTRICITY": 0.01993854, "INCLINATION": 98.5182, "RA_OF_ASC_NODE": 321.7576, "ARG_OF_PERICENTER": 203.1123, "MEAN_ANOMALY": 221.7984, "EPHEMERIS_TYPE": 0, "CLASSIFICATION_TYPE": "U", "NORAD_CAT_ID": 31285, "ELEMENT_SET_NO": 999, "REV_AT_EPOCH": 97220, "BSTAR": 0.00031017428, "MEAN_MOTION_DOT": 8.66e-06, "MEAN_MOTION_DDOT": 0}, "tle": {"line1": "1 31285U 99025BNT 25341.19477061  .00000866  00000+0  31017-3 0  9998", "line2": "2 31285  98.5182 321.7576 0199385 203.1123 221.7984 14.26030694972200"}}, "geometry": {"type": "Point", "coordinates": [128.58257419368172, -57.89914328852938]}}, {"type": "Feature", "properties": {"norad_id": 31286, "name": "FENGYUN 1C DEB", "group": "fengyun-1c-debris", "lat": 58.514486092563686, "lon": -146.9119473690157, "alt_km": 846.121486681337, "timestamp": "2025-12-07T20:38:14.345216+00:00", "meta": {"OBJECT_NAME": "FENGYUN 1C DEB", "OBJECT_ID": "1999-025BNU", "EPOCH": "2025-12-06T22:24:43.592832", "MEAN_MOTION": 14.22637362, "ECCENTRICITY": 0.00812432, "INCLINATION": 100.8592, "RA_OF_ASC_NODE": 230.2145, "ARG_OF_PERICENTER": 295.0393, "MEAN_ANOMALY": 64.2359, "EPHEMERIS_TYPE": 0, "CLASSIFICATION_TYPE": "U", "NORAD_CAT_ID": 31286, "ELEMENT_SET_NO": 999, "REV_AT_EPOCH": 63937, "BSTAR": 0.0046830748, "MEAN_MOTION_DOT": 0.0001079, "MEAN_MOTION_DDOT": 0}, "tle": {"line1": "1 31286U 99025BNU 25340.93383788  .00010790  00000+0  46831-2 0  9998", "line2": "2 31286 100.8592 230.2145 0081243 295.0393  64.2359 14.22637362639376"}}, "geometry": {"type": "Point", "coordinates": [-146.9119473690157, 58.514486092563686]}}, {"type": "Feature", "properties": {"norad_id": 31287, "name": "FENGYUN 1C DEB", "group": "fengyun-1c-debris", "lat": 17.544292907692967, "lon": 34.41383223179749, "alt_km": 788.3675675566392, "timestamp": "2025-12-07T20:38:14.345227+00:00", "meta": {"OBJECT_NAME": "FENGYUN 1C DEB", "OBJECT_ID": "1999-025BNV", "EPOCH": "2025-12-01T09:50:16.615392", "MEAN_MOTION": 14.27891237, "ECCENTRICITY": 0.00285984, "INCLINATION": 99.4087, "RA_OF_ASC_NODE": 30.4771, "ARG_OF_PERICENTER": 95.3474, "MEAN_ANOMALY": 265.0968, "EPHEMERIS_TYPE": 0, "CLASSIFICATION_TYPE": "U", "NORAD_CAT_ID": 31287, "ELEMENT_SET_NO": 999, "REV_AT_EPOCH": 96524, "BSTAR": 0.0017630055, "MEAN_MOTION_DOT": 4.336e-05, "MEAN_MOTION_DDOT": 0}, "tle": {"line1": "1 31287U 99025BNV 25335.40991453  .00004336  00000+0  17630-2 0  9993", "line2": "2 31287  99.4087  30.4771 0028598  95.3474 265.0968 14.27891237965242"}}, "geometry": {"type": "Point", "coordinates": [34.41383223179749, 17.544292907692967]}}, {"type": "Feature", "properties": {"norad_id": 31288, "name": "FENGYUN 1C DEB", "group": "fengyun-1c-debris", "lat": 57.945717908282454, "lon": 125.11155639490296, "alt_km": 583.0117554397839, "timestamp": "2025-12-07T20:38:14.345237+00:00", "meta": {"OBJECT_NAME": "FENGYUN 1C DEB", "OBJECT_ID": "1999-025BNW", "EPOCH": "2025-12-06T17:07:21.288576", "MEAN_MOTION": 14.9457198, "ECCENTRICITY": 0.00226375, "INCLINATION": 98.7482, "RA_OF_ASC_NODE": 138.0704, "ARG_OF_PERICENTER": 311.7014, "MEAN_ANOMALY": 61.9592, "EPHEMERIS_TYPE": 0, "CLASSIFICATION_TYPE": "U", "NORAD_CAT_ID": 31288, "ELEMENT_SET_NO": 999, "REV_AT_EPOCH": 97467, "BSTAR": 0.0096913469, "MEAN_MOTION_DOT": 0.00106833, "MEAN_MOTION_DDOT": 0}, "tle": {"line1": "1 31288U 99025BNW 25340.71344084  .00106833  00000+0  96913-2 0  9992", "line2": "2 31288  98.7482 138.0704 0022637 311.7014  61.9592 14.94571980974675"}}, "geometry": {"type": "Point", "coordinates": [125.11155639490296, 57.945717908282454]}}]}